TOMORROW-S1             
1 60479U 24149M   26068.72470524  .00008620  00000+0  28856-3 0  9996
2 60479  97.3791 149.6044 0001819 207.2040 152.9106 15.31198362 86867
STARLINK-32169          
1 60589U 24150G   26068.86843275  .00000414  00000+0  26105-4 0  9991
2 60589  53.1609 306.5604 0001064  74.7722 285.3397 15.30178264 88064
